ONEWEB-0267             
1 48985U 21060U   24133.92736830  .00000072  00000+0  15542-3 0  9992
2 48985  87.9140  21.1039 0001748  94.4900 265.6430 13.16593668140185
ONEWEB-0268             
1 48986U 21060V   24134.42768381  .00000026  00000+0  33222-4 0  9990
2 48986  87.9138  21.0106 0001721  84.5069 275.6258 13.16594226140511
ONEWEB-0269             
1 48987U 21060W   24134.18068748 -.00000059  00000+0 -18832-3 0  9991
2 48987  87.9143  21.0840 0001789  78.4398 281.6934 13.16592960140267
ONEWEB-0270             
1 48988U 21060X   24133.97011268 -.00000176  00000+0 -49361-3 0  9994
2 48988  87.9135  21.1101 0002203  96.0393 264.0989 13.16594723138972
ONEWEB-0271             
1 48989U 21060Y   24134.41343838 -.00000118  00000+0 -34253-3 0  9996
2 48989  87.9133  20.9987 0001609  96.3435 263.7879 13.16595880140320
ONEWEB-0272             
1 48990U 21060Z   24133.75163098  .00000108  00000+0  25011-3 0  9991
2 48990  87.9141  21.1579 0001799  90.3488 269.7849 13.16593221138892
ONEWEB-0273             
1 48991U 21060AA  24133.92578056  .00000099  00000+0  22522-3 0  9998
2 48991  87.9141  21.1104 0001971  85.1890 274.9466 13.16599340138899
ONEWEB-0274             
1 48992U 21060AB  24134.17910538 -.00000441  00000+0 -11860-2 0  9997
2 48992  87.9145  21.0713 0001332  90.0126 270.1158 13.16594876140266
